start=new Date('2022-10-05T00:00:00.000Z').valueOf();
sats=[{"MEAN_MOTION":"15.73152487","GP_ID":"214194606","EPOCH":"2022-10-04T22:00:00.999936","PERIOD":"91.536","COUNTRY_CODE":"US","ELEMENT_SET_NO":"999","BSTAR":"0.00040368000000","NORAD_CAT_ID":"53632","MEAN_ANOMALY":"314.8204","SEMIMAJOR_AXIS":"6728.031","TIME_SYSTEM":"UTC","DECAY_DATE":null,"MEAN_MOTION_DDOT":"0.0000000000000","REV_AT_EPOCH":"130","SITE":"AFETR","OBJECT_TYPE":"PAYLOAD","OBJECT_ID":"2022-104AW","TLE_LINE1":"1 53632U 22104AW  22277.91667824  .00056299  00000-0  40368-3 0  9996","FILE":"3591597","LAUNCH_DATE":"2022-08-28","ARG_OF_PERICENTER":"93.1723","CENTER_NAME":"EARTH","APOAPSIS":"350.829","MEAN_ELEMENT_THEORY":"SGP4","ECCENTRICITY":"0.00013870","REF_FRAME":"TEME","MEAN_MOTION_DOT":"0.00056299","RCS_SIZE":"LARGE","OBJECT_NAME":"STARLINK-4606","RA_OF_ASC_NODE":"100.9591","TLE_LINE2":"2 53632  53.2153 100.9591 0001387  93.1723 314.8204 15.73152487  1308","INCLINATION":"53.2153","PERIAPSIS":"348.962","CLASSIFICATION_TYPE":"U","EPHEMERIS_TYPE":"0"},{"CENTER_NAME":"EARTH","APOAPSIS":"350.835","MEAN_ELEMENT_THEORY":"SGP4","LAUNCH_DATE":"2022-08-28","ARG_OF_PERICENTER":"102.6705","EPHEMERIS_TYPE":"0","CLASSIFICATION_TYPE":"U","PERIAPSIS":"349.041","INCLINATION":"53.2153","RA_OF_ASC_NODE":"100.9596","OBJECT_NAME":"STARLINK-4593","RCS_SIZE":"LARGE","MEAN_MOTION_DOT":"0.00078284","TLE_LINE2":"2 53633  53.2153 100.9596 0001333 102.6705 304.7175 15.73137658  1309","ECCENTRICITY":"0.00013330","REF_FRAME":"TEME","MEAN_ANOMALY":"304.7175","SEMIMAJOR_AXIS":"6728.073","PERIOD":"91.537","NORAD_CAT_ID":"53633","COUNTRY_CODE":"US","BSTAR":"0.00055849000000","ELEMENT_SET_NO":"999","GP_ID":"214193689","EPOCH":"2022-10-04T22:00:00.999936","MEAN_MOTION":"15.73137658","TLE_LINE1":"1 53633U 22104AX  22277.91667824  .00078284  00000-0  55849-3 0  9995","OBJECT_ID":"2022-104AX","FILE":"3591597","SITE":"AFETR","OBJECT_TYPE":"PAYLOAD","MEAN_MOTION_DDOT":"0.0000000000000","TIME_SYSTEM":"UTC","DECAY_DATE":null,"REV_AT_EPOCH":"130"},{"MEAN_MOTION":"15.73128783","GP_ID":"214194687","EPOCH":"2022-10-04T22:00:00.999936","PERIOD":"91.537","COUNTRY_CODE":"US","ELEMENT_SET_NO":"999","BSTAR":"0.00055640000000","NORAD_CAT_ID":"53634","MEAN_ANOMALY":"319.0756","SEMIMAJOR_AXIS":"6728.098","MEAN_MOTION_DDOT":"0.0000000000000","TIME_SYSTEM":"UTC","DECAY_DATE":null,"REV_AT_EPOCH":"130","SITE":"AFETR","OBJECT_TYPE":"PAYLOAD","TLE_LINE1":"1 53634U 22104AY  22277.91667824  .00077955  00000-0  55640-3 0  9999","OBJECT_ID":"2022-104AY","FILE":"3591597","LAUNCH_DATE":"2022-08-28","ARG_OF_PERICENTER":"90.1173","CENTER_NAME":"EARTH","APOAPSIS":"350.668","MEAN_ELEMENT_THEORY":"SGP4","ECCENTRICITY":"0.00010480","REF_FRAME":"TEME","RA_OF_ASC_NODE":"100.9546","RCS_SIZE":"LARGE","OBJECT_NAME":"STARLINK-4592","MEAN_MOTION_DOT":"0.00077955","TLE_LINE2":"2 53634  53.2151 100.9546 0001048  90.1173 319.0756 15.73128783  1309","CLASSIFICATION_TYPE":"U","PERIAPSIS":"349.258","INCLINATION":"53.2151","EPHEMERIS_TYPE":"0"},{"LAUNCH_DATE":"2022-08-28","ARG_OF_PERICENTER":"93.9752","CENTER_NAME":"EARTH","APOAPSIS":"350.764","MEAN_ELEMENT_THEORY":"SGP4","ECCENTRICITY":"0.00012010","REF_FRAME":"TEME","RCS_SIZE":"LARGE","OBJECT_NAME":"STARLINK-4587","MEAN_MOTION_DOT":"0.00077114","RA_OF_ASC_NODE":"100.9546","TLE_LINE2":"2 53635  53.2165 100.9546 0001201  93.9752 314.6085 15.73131440  1300","INCLINATION":"53.2165","PERIAPSIS":"349.148","CLASSIFICATION_TYPE":"U","EPHEMERIS_TYPE":"0","MEAN_MOTION":"15.73131440","GP_ID":"214194273","EPOCH":"2022-10-04T22:00:00.999936","PERIOD":"91.537","COUNTRY_CODE":"US","BSTAR":"0.00055044000000","ELEMENT_SET_NO":"999","NORAD_CAT_ID":"53635","SEMIMAJOR_AXIS":"6728.091","MEAN_ANOMALY":"314.6085","TIME_SYSTEM":"UTC","DECAY_DATE":null,"MEAN_MOTION_DDOT":"0.0000000000000","REV_AT_EPOCH":"130","SITE":"AFETR","OBJECT_TYPE":"PAYLOAD","OBJECT_ID":"2022-104AZ","TLE_LINE1":"1 53635U 22104AZ  22277.91667824  .00077114  00000-0  55044-3 0  9995","FILE":"3591597"},{"MEAN_MOTION":"15.73177049","GP_ID":"214194853","EPOCH":"2022-10-04T22:00:00.999936","PERIOD":"91.535","COUNTRY_CODE":"US","BSTAR":"-0.00012289000000","ELEMENT_SET_NO":"999","NORAD_CAT_ID":"53636","SEMIMAJOR_AXIS":"6727.961","MEAN_ANOMALY":"326.9950","DECAY_DATE":null,"TIME_SYSTEM":"UTC","MEAN_MOTION_DDOT":"0.0000000000000","REV_AT_EPOCH":"130","SITE":"AFETR","OBJECT_TYPE":"PAYLOAD","OBJECT_ID":"2022-104BA","TLE_LINE1":"1 53636U 22104BA  22277.91667824 -.00017812  00000-0 -12289-3 0  9991","FILE":"3591597","LAUNCH_DATE":"2022-08-28","ARG_OF_PERICENTER":"83.4203","CENTER_NAME":"EARTH","MEAN_ELEMENT_THEORY":"SGP4","APOAPSIS":"350.492","ECCENTRICITY":"0.00009910","REF_FRAME":"TEME","RCS_SIZE":"LARGE","OBJECT_NAME":"STARLINK-4586","MEAN_MOTION_DOT":"-0.00017812","RA_OF_ASC_NODE":"100.9537","TLE_LINE2":"2 53636  53.2152 100.9537 0000991  83.4203 326.9950 15.73177049  1309","INCLINATION":"53.2152","PERIAPSIS":"349.159","CLASSIFICATION_TYPE":"U","EPHEMERIS_TYPE":"0"},{"SITE":"AFETR","OBJECT_TYPE":"PAYLOAD","MEAN_MOTION_DDOT":"0.0000000000000","TIME_SYSTEM":"UTC","DECAY_DATE":null,"REV_AT_EPOCH":"130","TLE_LINE1":"1 53637U 22104BB  22277.91667824  .00028601  00000-0  20782-3 0  9995","OBJECT_ID":"2022-104BB","FILE":"3591597","GP_ID":"214194108","EPOCH":"2022-10-04T22:00:00.999936","MEAN_MOTION":"15.73164551","MEAN_ANOMALY":"317.2563","SEMIMAJOR_AXIS":"6727.996","PERIOD":"91.535","COUNTRY_CODE":"US","NORAD_CAT_ID":"53637","BSTAR":"0.00020782000000","ELEMENT_SET_NO":"999","RA_OF_ASC_NODE":"100.9563","OBJECT_NAME":"STARLINK-4396","RCS_SIZE":"LARGE","MEAN_MOTION_DOT":"0.00028601","TLE_LINE2":"2 53637  53.2155 100.9563 0001028  92.5306 317.2563 15.73164551  1306","ECCENTRICITY":"0.00010280","REF_FRAME":"TEME","EPHEMERIS_TYPE":"0","CLASSIFICATION_TYPE":"U","INCLINATION":"53.2155","PERIAPSIS":"349.170","LAUNCH_DATE":"2022-08-28","ARG_OF_PERICENTER":"92.5306","CENTER_NAME":"EARTH","APOAPSIS":"350.553","MEAN_ELEMENT_THEORY":"SGP4"},{"EPOCH":"2022-10-04T22:00:00.999936","GP_ID":"214194440","MEAN_MOTION":"15.73158635","MEAN_ANOMALY":"316.3654","SEMIMAJOR_AXIS":"6728.013","PERIOD":"91.536","BSTAR":"0.00015597000000","COUNTRY_CODE":"US","ELEMENT_SET_NO":"999","NORAD_CAT_ID":"53638","SITE":"AFETR","OBJECT_TYPE":"PAYLOAD","TIME_SYSTEM":"UTC","DECAY_DATE":null,"MEAN_MOTION_DDOT":"0.0000000000000","REV_AT_EPOCH":"130","OBJECT_ID":"2022-104BC","TLE_LINE1":"1 53638U 22104BC  22277.91667824  .00021286  00000-0  15597-3 0  9996","FILE":"3591597","LAUNCH_DATE":"2022-08-28","ARG_OF_PERICENTER":"95.2125","CENTER_NAME":"EARTH","APOAPSIS":"350.635","MEAN_ELEMENT_THEORY":"SGP4","MEAN_MOTION_DOT":"0.00021286","RCS_SIZE":"LARGE","OBJECT_NAME":"STARLINK-4594","RA_OF_ASC_NODE":"100.9509","TLE_LINE2":"2 53638  53.2151 100.9509 0001125  95.2125 316.3654 15.73158635  1307","ECCENTRICITY":"0.00011250","REF_FRAME":"TEME","EPHEMERIS_TYPE":"0","INCLINATION":"53.2151","PERIAPSIS":"349.121","CLASSIFICATION_TYPE":"U"},{"MEAN_MOTION":"15.73136320","GP_ID":"214193856","EPOCH":"2022-10-04T22:00:00.999936","NORAD_CAT_ID":"53639","COUNTRY_CODE":"US","BSTAR":"0.00054487000000","ELEMENT_SET_NO":"999","PERIOD":"91.537","SEMIMAJOR_AXIS":"6728.077","MEAN_ANOMALY":"316.6221","REV_AT_EPOCH":"130","MEAN_MOTION_DDOT":"0.0000000000000","DECAY_DATE":null,"TIME_SYSTEM":"UTC","OBJECT_TYPE":"PAYLOAD","SITE":"AFETR","FILE":"3591597","TLE_LINE1":"1 53639U 22104BD  22277.91667824  .00076337  00000-0  54487-3 0  9995","OBJECT_ID":"2022-104BD","ARG_OF_PERICENTER":"94.3654","LAUNCH_DATE":"2022-08-28","MEAN_ELEMENT_THEORY":"SGP4","APOAPSIS":"350.713","CENTER_NAME":"EARTH","REF_FRAME":"TEME","ECCENTRICITY":"0.00011470","TLE_LINE2":"2 53639  53.2155 100.9536 0001147  94.3654 316.6221 15.73136320  1303","RA_OF_ASC_NODE":"100.9536","RCS_SIZE":"LARGE","OBJECT_NAME":"STARLINK-4422","MEAN_MOTION_DOT":"0.00076337","CLASSIFICATION_TYPE":"U","INCLINATION":"53.2155","PERIAPSIS":"349.170","EPHEMERIS_TYPE":"0"},{"TIME_SYSTEM":"UTC","DECAY_DATE":null,"MEAN_MOTION_DDOT":"0.0000000000000","REV_AT_EPOCH":"130","SITE":"AFETR","OBJECT_TYPE":"PAYLOAD","OBJECT_ID":"2022-104BE","TLE_LINE1":"1 53640U 22104BE  22277.91667824  .00022865  00000-0  16726-3 0  9998","FILE":"3591597","MEAN_MOTION":"15.73147175","EPOCH":"2022-10-04T22:00:00.999936","GP_ID":"214194607","PERIOD":"91.536","BSTAR":"0.00016726000000","COUNTRY_CODE":"US","ELEMENT_SET_NO":"999","NORAD_CAT_ID":"53640","MEAN_ANOMALY":"308.2530","SEMIMAJOR_AXIS":"6728.046","ECCENTRICITY":"0.00010310","REF_FRAME":"TEME","RCS_SIZE":"LARGE","MEAN_MOTION_DOT":"0.00022865","OBJECT_NAME":"STARLINK-4597","RA_OF_ASC_NODE":"100.9483","TLE_LINE2":"2 53640  53.2149 100.9483 0001031 103.9333 308.2530 15.73147175  1302","INCLINATION":"53.2149","PERIAPSIS":"349.217","CLASSIFICATION_TYPE":"U","EPHEMERIS_TYPE":"0","LAUNCH_DATE":"2022-08-28","ARG_OF_PERICENTER":"103.9333","CENTER_NAME":"EARTH","APOAPSIS":"350.604","MEAN_ELEMENT_THEORY":"SGP4"},{"BSTAR":"0.00054112000000","COUNTRY_CODE":"US","ELEMENT_SET_NO":"999","NORAD_CAT_ID":"53641","PERIOD":"91.537","MEAN_ANOMALY":"312.8237","SEMIMAJOR_AXIS":"6728.080","MEAN_MOTION":"15.73135051","GP_ID":"214193690","EPOCH":"2022-10-04T22:00:00.999936","FILE":"3591597","OBJECT_ID":"2022-104BF","TLE_LINE1":"1 53641U 22104BF  22277.91667824  .00075798  00000-0  54112-3 0  9993","REV_AT_EPOCH":"130","DECAY_DATE":null,"TIME_SYSTEM":"UTC","MEAN_MOTION_DDOT":"0.0000000000000","OBJECT_TYPE":"PAYLOAD","SITE":"AFETR","APOAPSIS":"350.676","MEAN_ELEMENT_THEORY":"SGP4","CENTER_NAME":"EARTH","ARG_OF_PERICENTER":"99.9564","LAUNCH_DATE":"2022-08-28","PERIAPSIS":"349.215","INCLINATION":"53.2152","CLASSIFICATION_TYPE":"U","EPHEMERIS_TYPE":"0","REF_FRAME":"TEME","ECCENTRICITY":"0.00010860","TLE_LINE2":"2 53641  53.2152 100.9497 0001086  99.9564 312.8237 15.73135051  1307","RCS_SIZE":"LARGE","MEAN_MOTION_DOT":"0.00075798","OBJECT_NAME":"STARLINK-4588","RA_OF_ASC_NODE":"100.9497"}];
